[{"OBJECT_NAME":"STARLINK-36780","OBJECT_ID":"2026-034S","EPOCH":"2026-03-19T04:51:40.119552","MEAN_MOTION":15.81110943,"ECCENTRICITY":0.00017255,"INCLINATION":53.1591,"RA_OF_ASC_NODE":163.5398,"ARG_OF_PERICENTER":136.458,"MEAN_ANOMALY":223.6579,"EPHEMERIS_TYPE":0,"CLASSIFICATION_TYPE":"U","NORAD_CAT_ID":67866,"ELEMENT_SET_NO":999,"REV_AT_EPOCH":544,"BSTAR":0.001413634,"MEAN_MOTION_DOT":0.00291093,"MEAN_MOTION_DDOT":0},{"OBJECT_NAME":"STARLINK-36761","OBJECT_ID":"2026-034T","EPOCH":"2026-03-18T22:46:26.988672","MEAN_MOTION":15.8094498,"ECCENTRICITY":0.00022839,"INCLINATION":53.159,"RA_OF_ASC_NODE":164.8009,"ARG_OF_PERICENTER":76.2449,"MEAN_ANOMALY":283.8828,"EPHEMERIS_TYPE":0,"CLASSIFICATION_TYPE":"U","NORAD_CAT_ID":67867,"ELEMENT_SET_NO":999,"REV_AT_EPOCH":540,"BSTAR":0.0013230603,"MEAN_MOTION_DOT":0.00269647,"MEAN_MOTION_DDOT":0},{"OBJECT_NAME":"STARLINK-36762","OBJECT_ID":"2026-034U","EPOCH":"2026-03-19T06:20:32.318880","MEAN_MOTION":15.80947978,"ECCENTRICITY":0.00014882,"INCLINATION":53.1593,"RA_OF_ASC_NODE":163.2126,"ARG_OF_PERICENTER":308.5734,"MEAN_ANOMALY":51.5155,"EPHEMERIS_TYPE":0,"CLASSIFICATION_TYPE":"U","NORAD_CAT_ID":67868,"ELEMENT_SET_NO":999,"REV_AT_EPOCH":545,"BSTAR":0.0011758903,"MEAN_MOTION_DOT":0.00238736,"MEAN_MOTION_DDOT":0},{"OBJECT_NAME":"STARLINK-36779","OBJECT_ID":"2026-034V","EPOCH":"2026-03-19T04:48:25.683264","MEAN_MOTION":15.8092057,"ECCENTRICITY":0.00015288,"INCLINATION":53.1585,"RA_OF_ASC_NODE":163.5244,"ARG_OF_PERICENTER":98.6086,"MEAN_ANOMALY":261.511,"EPHEMERIS_TYPE":0,"CLASSIFICATION_TYPE":"U","NORAD_CAT_ID":67869,"ELEMENT_SET_NO":999,"REV_AT_EPOCH":544,"BSTAR":0.0013478039,"MEAN_MOTION_DOT":0.00274545,"MEAN_MOTION_DDOT":0},{"OBJECT_NAME":"STARLINK-36770","OBJECT_ID":"2026-034W","EPOCH":"2026-03-19T06:17:17.979360","MEAN_MOTION":15.80943622,"ECCENTRICITY":0.00012266,"INCLINATION":53.1589,"RA_OF_ASC_NODE":163.1969,"ARG_OF_PERICENTER":302.1071,"MEAN_ANOMALY":57.9832,"EPHEMERIS_TYPE":0,"CLASSIFICATION_TYPE":"U","NORAD_CAT_ID":67870,"ELEMENT_SET_NO":999,"REV_AT_EPOCH":545,"BSTAR":0.0012377502,"MEAN_MOTION_DOT":0.00251663,"MEAN_MOTION_DDOT":0},{"OBJECT_NAME":"STARLINK-36769","OBJECT_ID":"2026-034X","EPOCH":"2026-03-19T06:18:22.959072","MEAN_MOTION":15.80961365,"ECCENTRICITY":9.015e-5,"INCLINATION":53.1589,"RA_OF_ASC_NODE":163.2023,"ARG_OF_PERICENTER":112.5163,"MEAN_ANOMALY":247.5955,"EPHEMERIS_TYPE":0,"CLASSIFICATION_TYPE":"U","NORAD_CAT_ID":67871,"ELEMENT_SET_NO":999,"REV_AT_EPOCH":545,"BSTAR":0.0018876202,"MEAN_MOTION_DOT":0.00390819,"MEAN_MOTION_DDOT":0},{"OBJECT_NAME":"STARLINK-36786","OBJECT_ID":"2026-034Y","EPOCH":"2026-03-19T06:16:13.346112","MEAN_MOTION":15.80968663,"ECCENTRICITY":0.00014957,"INCLINATION":53.1588,"RA_OF_ASC_NODE":163.192,"ARG_OF_PERICENTER":110.1009,"MEAN_ANOMALY":250.0174,"EPHEMERIS_TYPE":0,"CLASSIFICATION_TYPE":"U","NORAD_CAT_ID":67872,"ELEMENT_SET_NO":999,"REV_AT_EPOCH":545,"BSTAR":0.001849997,"MEAN_MOTION_DOT":0.00382767,"MEAN_MOTION_DDOT":0},{"OBJECT_NAME":"STARLINK-36783","OBJECT_ID":"2026-034Z","EPOCH":"2026-03-19T06:15:08.572032","MEAN_MOTION":15.80941554,"ECCENTRICITY":9.931e-5,"INCLINATION":53.159,"RA_OF_ASC_NODE":163.1865,"ARG_OF_PERICENTER":95.5878,"MEAN_ANOMALY":264.5258,"EPHEMERIS_TYPE":0,"CLASSIFICATION_TYPE":"U","NORAD_CAT_ID":67873,"ELEMENT_SET_NO":999,"REV_AT_EPOCH":545,"BSTAR":0.001570932,"MEAN_MOTION_DOT":0.00322223,"MEAN_MOTION_DDOT":0},{"OBJECT_NAME":"STARLINK-36730","OBJECT_ID":"2026-034AA","EPOCH":"2026-03-19T06:14:03.615648","MEAN_MOTION":15.80954351,"ECCENTRICITY":6.399e-5,"INCLINATION":53.1584,"RA_OF_ASC_NODE":163.1816,"ARG_OF_PERICENTER":110.371,"MEAN_ANOMALY":249.7381,"EPHEMERIS_TYPE":0,"CLASSIFICATION_TYPE":"U","NORAD_CAT_ID":67874,"ELEMENT_SET_NO":999,"REV_AT_EPOCH":545,"BSTAR":0.0018909646,"MEAN_MOTION_DOT":0.00391424,"MEAN_MOTION_DDOT":0},{"OBJECT_NAME":"STARLINK-36727","OBJECT_ID":"2026-034AB","EPOCH":"2026-03-19T06:12:58.929696","MEAN_MOTION":15.80911704,"ECCENTRICITY":3.687e-5,"INCLINATION":53.1589,"RA_OF_ASC_NODE":163.1746,"ARG_OF_PERICENTER":135.0513,"MEAN_ANOMALY":225.054,"EPHEMERIS_TYPE":0,"CLASSIFICATION_TYPE":"U","NORAD_CAT_ID":67875,"ELEMENT_SET_NO":999,"REV_AT_EPOCH":545,"BSTAR":0.001374993,"MEAN_MOTION_DOT":0.00280182,"MEAN_MOTION_DDOT":0},{"OBJECT_NAME":"STARLINK-36743","OBJECT_ID":"2026-034AC","EPOCH":"2026-03-18T22:36:43.642656","MEAN_MOTION":15.80978026,"ECCENTRICITY":0.00018003,"INCLINATION":53.1595,"RA_OF_ASC_NODE":164.7549,"ARG_OF_PERICENTER":71.1947,"MEAN_ANOMALY":288.9271,"EPHEMERIS_TYPE":0,"CLASSIFICATION_TYPE":"U","NORAD_CAT_ID":67876,"ELEMENT_SET_NO":999,"REV_AT_EPOCH":540,"BSTAR":0.0012145481,"MEAN_MOTION_DOT":0.00247196,"MEAN_MOTION_DDOT":0},{"OBJECT_NAME":"STARLINK-36784","OBJECT_ID":"2026-034AD","EPOCH":"2026-03-19T06:00:02.000160","MEAN_MOTION":15.76492244,"ECCENTRICITY":0.00010179,"INCLINATION":53.1591,"RA_OF_ASC_NODE":163.2218,"ARG_OF_PERICENTER":95.8345,"MEAN_ANOMALY":213.3103,"EPHEMERIS_TYPE":0,"CLASSIFICATION_TYPE":"U","NORAD_CAT_ID":67877,"ELEMENT_SET_NO":999,"REV_AT_EPOCH":539,"BSTAR":-0.013547211,"MEAN_MOTION_DOT":-0.01909169,"MEAN_MOTION_DDOT":0},{"OBJECT_NAME":"STARLINK-36689","OBJECT_ID":"2026-034AE","EPOCH":"2026-03-19T04:38:42.130752","MEAN_MOTION":15.80938424,"ECCENTRICITY":0.00015411,"INCLINATION":53.1583,"RA_OF_ASC_NODE":163.4784,"ARG_OF_PERICENTER":109.2577,"MEAN_ANOMALY":250.8612,"EPHEMERIS_TYPE":0,"CLASSIFICATION_TYPE":"U","NORAD_CAT_ID":67878,"ELEMENT_SET_NO":999,"REV_AT_EPOCH":544,"BSTAR":0.001561532,"MEAN_MOTION_DOT":0.00320161,"MEAN_MOTION_DDOT":0},{"OBJECT_NAME":"STARLINK-36818","OBJECT_ID":"2026-035A","EPOCH":"2026-03-19T06:59:16.470240","MEAN_MOTION":15.75262017,"ECCENTRICITY":0.0001183,"INCLINATION":97.2882,"RA_OF_ASC_NODE":11.1428,"ARG_OF_PERICENTER":138.8691,"MEAN_ANOMALY":221.2663,"EPHEMERIS_TYPE":0,"CLASSIFICATION_TYPE":"U","NORAD_CAT_ID":67879,"ELEMENT_SET_NO":999,"REV_AT_EPOCH":535,"BSTAR":0.0013380612,"MEAN_MOTION_DOT":0.00204951,"MEAN_MOTION_DDOT":0},{"OBJECT_NAME":"STARLINK-36821","OBJECT_ID":"2026-035B","EPOCH":"2026-03-19T06:55:12.696960","MEAN_MOTION":15.75272575,"ECCENTRICITY":0.00013531,"INCLINATION":97.2868,"RA_OF_ASC_NODE":11.1458,"ARG_OF_PERICENTER":95.9198,"MEAN_ANOMALY":264.2221,"EPHEMERIS_TYPE":0,"CLASSIFICATION_TYPE":"U","NORAD_CAT_ID":67880,"ELEMENT_SET_NO":999,"REV_AT_EPOCH":535,"BSTAR":0.0013248233,"MEAN_MOTION_DOT":0.00202967,"MEAN_MOTION_DDOT":0},{"OBJECT_NAME":"STARLINK-36808","OBJECT_ID":"2026-035C","EPOCH":"2026-03-19T06:32:25.188864","MEAN_MOTION":15.80924399,"ECCENTRICITY":7.726e-5,"INCLINATION":97.2887,"RA_OF_ASC_NODE":11.1651,"ARG_OF_PERICENTER":66.2781,"MEAN_ANOMALY":293.8568,"EPHEMERIS_TYPE":0,"CLASSIFICATION_TYPE":"U","NORAD_CAT_ID":67881,"ELEMENT_SET_NO":999,"REV_AT_EPOCH":535,"BSTAR":0.0019201339,"MEAN_MOTION_DOT":0.00386348,"MEAN_MOTION_DDOT":0}]
