STARLINK-36780          
1 67866U 26034S   26078.20254768  .00291093  00000+0  14136-2 0  9995
2 67866  53.1591 163.5398 0001725 136.4580 223.6579 15.81110943  5446
STARLINK-36761          
1 67867U 26034T   26077.94892348  .00269647  00000+0  13231-2 0  9993
2 67867  53.1590 164.8009 0002283  76.2449 283.8828 15.80944980  5400
STARLINK-36762          
1 67868U 26034U   26078.26426295  .00238736  00000+0  11759-2 0  9992
2 67868  53.1593 163.2126 0001488 308.5734  51.5155 15.80947978  5459
STARLINK-36779          
1 67869U 26034V   26078.20029726  .00274545  00000+0  13478-2 0  9993
2 67869  53.1585 163.5244 0001528  98.6086 261.5110 15.80920570  5449
STARLINK-36770          
1 67870U 26034W   26078.26201365  .00251663  00000+0  12378-2 0  9996
2 67870  53.1589 163.1969 0001226 302.1071  57.9832 15.80943622  5459
STARLINK-36769          
1 67871U 26034X   26078.26276573  .00390819  00000+0  18876-2 0  9996
2 67871  53.1589 163.2023 0000901 112.5163 247.5955 15.80961365  5453
STARLINK-36786          
1 67872U 26034Y   26078.26126558  .00382767  00000+0  18500-2 0  9991
2 67872  53.1588 163.1920 0001495 110.1009 250.0174 15.80968663  5450
STARLINK-36783          
1 67873U 26034Z   26078.26051588  .00322223  00000+0  15709-2 0  9991
2 67873  53.1590 163.1865 0000993  95.5878 264.5258 15.80941554  5457
STARLINK-36730          
1 67874U 26034AA  26078.25976407  .00391424  00000+0  18910-2 0  9993
2 67874  53.1584 163.1816 0000639 110.3710 249.7381 15.80954351  5456
STARLINK-36727          
1 67875U 26034AB  26078.25901539  .00280182  00000+0  13750-2 0  9993
2 67875  53.1589 163.1746 0000368 135.0513 225.0540 15.80911704  5457
STARLINK-36743          
1 67876U 26034AC  26077.94217179  .00247196  00000+0  12145-2 0  9994
2 67876  53.1595 164.7549 0001800  71.1947 288.9271 15.80978026  5400
STARLINK-36784          
1 67877U 26034AD  26078.25002315 -.01909169  00000+0 -13547-1 0  9998
2 67877  53.1591 163.2218 0001017  95.8345 213.3103 15.76492244  5391
STARLINK-36689          
1 67878U 26034AE  26078.19354318  .00320161  00000+0  15615-2 0  9990
2 67878  53.1583 163.4784 0001541 109.2577 250.8612 15.80938424  5449
STARLINK-36818          
1 67879U 26035A   26078.29116285  .00204951  00000+0  13381-2 0  9998
2 67879  97.2882  11.1428 0001183 138.8691 221.2663 15.75262017  5352
STARLINK-36821          
1 67880U 26035B   26078.28834140  .00202967  00000+0  13248-2 0  9993
2 67880  97.2868  11.1458 0001353  95.9198 264.2221 15.75272575  5352
STARLINK-36808          
1 67881U 26035C   26078.27251376  .00386348  00000+0  19201-2 0  9998
2 67881  97.2887  11.1651 0000772  66.2781 293.8568 15.80924399  5358
